STARLINK-37110          
1 68222U 26053R   26082.75003472 -.02052344  12318-2 -44148-2 0  9994
2 68222  97.2778 317.6079 0001517  74.1388   1.4006 15.98653540  2278
STARLINK-37025          
1 68223U 26053S   26082.75003472 -.02112431  13044-2 -45024-2 0  9990
2 68223  97.2775 317.6083 0001455  79.8178 357.7946 15.98824484  2278
STARLINK-36977          
1 68224U 26053T   26082.75003472 -.02107640  13008-2 -44584-2 0  9997
2 68224  97.2770 317.6091 0001484  79.1251   0.2391 15.98959351  2164
STARLINK-36960          
1 68225U 26053U   26082.75003472 -.02097811  12911-2 -44055-2 0  9991
2 68225  97.2771 317.6098 0001395  78.0835   2.9890 15.99089223  2256
STARLINK-37038          
1 68226U 26053V   26082.75003472 -.02105406  13046-2 -43512-2 0  9999
2 68226  97.2773 317.6118 0001435  77.2974   7.7113 15.99375706  2257
STARLINK-37083          
1 68227U 26053W   26076.91670139  .00451132  10337-3  50505-3 0  9999
2 68227  97.2838 311.1986 0011267 270.0799 280.1631 16.09297729  1312
STARLINK-37050          
1 68228U 26053X   26082.75003472 -.02104251  13054-2 -43143-2 0  9997
2 68228  97.2775 317.6131 0001501  78.1536   8.9822 15.99517400  2253
STARLINK-37081          
1 68229U 26053Y   26082.75003472 -.02101940  13092-2 -42105-2 0  9999
2 68229  97.2770 317.6154 0001536  75.6812  17.2418 15.99930003  2275
STARLINK-37100          
1 68230U 26053Z   26082.75003472 -.02056477  12509-2 -41888-2 0  9994
2 68230  97.2771 317.6138 0001555  68.6020  20.2838 15.99629990  2274
STARLINK-37104          
1 68231U 26053AA  26082.75003472 -.02053312  12493-2 -41490-2 0  9991
2 68231  97.2770 317.6148 0001541  91.7966 359.1302 15.99771773  2273
TEN-KOH 2               
1 68261U 25241B   26083.97815134  .00008272  00000+0  36405-3 0  9993
2 68261  51.6370   0.1717 0004433 209.7861 150.2864 15.22669035  2074
PROGRESS-MS 33          
1 68319U 26058A   26083.80895787  .00009690  00000+0  18680-3 0  9998
2 68319  51.6344 357.6177 0006258 228.0573 131.9883 15.48525391   114
CENTISPACE-1 OBJECT A   
1 68350U 26060A   26083.94113720  .00000006  00000+0  31874-4 0  9994
2 68350  54.9833  19.4052 0012891 297.8205  62.1488 14.74901160   340
CENTISPACE-1 OBJECT B   
1 68351U 26060B   26083.94110407  .00000006  00000+0  31871-4 0  9991
2 68351  54.9838  19.4040 0012905 297.8658  62.1034 14.74922246   346
CENTISPACE-1 OBJECT C   
1 68352U 26060C   26083.94083220  .00000010  00000+0  32235-4 0  9994
2 68352  54.9832  19.4040 0012234 303.4374  56.5455 14.75103180   348
CENTISPACE-1 OBJECT D   
1 68353U 26060D   26083.94076074  .00000010  00000+0  32363-4 0  9996
2 68353  54.9854  19.4026 0012444 304.4138  55.5684 14.75149528   348
