[{"OBJECT_NAME":"STARLINK-37110","OBJECT_ID":"2026-053R","EPOCH":"2026-03-23T18:00:02.999808","MEAN_MOTION":15.9865354,"ECCENTRICITY":0.00015176,"INCLINATION":97.2778,"RA_OF_ASC_NODE":317.6079,"ARG_OF_PERICENTER":74.1388,"MEAN_ANOMALY":1.4006,"EPHEMERIS_TYPE":0,"CLASSIFICATION_TYPE":"U","NORAD_CAT_ID":68222,"ELEMENT_SET_NO":999,"REV_AT_EPOCH":227,"BSTAR":-0.0044148317,"MEAN_MOTION_DOT":-0.02052344,"MEAN_MOTION_DDOT":0.0012317644},{"OBJECT_NAME":"STARLINK-37025","OBJECT_ID":"2026-053S","EPOCH":"2026-03-23T18:00:02.999808","MEAN_MOTION":15.98824484,"ECCENTRICITY":0.00014555,"INCLINATION":97.2775,"RA_OF_ASC_NODE":317.6083,"ARG_OF_PERICENTER":79.8178,"MEAN_ANOMALY":357.7946,"EPHEMERIS_TYPE":0,"CLASSIFICATION_TYPE":"U","NORAD_CAT_ID":68223,"ELEMENT_SET_NO":999,"REV_AT_EPOCH":227,"BSTAR":-0.0045024124,"MEAN_MOTION_DOT":-0.02112431,"MEAN_MOTION_DDOT":0.0013043558},{"OBJECT_NAME":"STARLINK-36977","OBJECT_ID":"2026-053T","EPOCH":"2026-03-23T18:00:02.999808","MEAN_MOTION":15.98959351,"ECCENTRICITY":0.0001484,"INCLINATION":97.277,"RA_OF_ASC_NODE":317.6091,"ARG_OF_PERICENTER":79.1251,"MEAN_ANOMALY":0.2391,"EPHEMERIS_TYPE":0,"CLASSIFICATION_TYPE":"U","NORAD_CAT_ID":68224,"ELEMENT_SET_NO":999,"REV_AT_EPOCH":216,"BSTAR":-0.0044584457,"MEAN_MOTION_DOT":-0.0210764,"MEAN_MOTION_DDOT":0.001300763},{"OBJECT_NAME":"STARLINK-36960","OBJECT_ID":"2026-053U","EPOCH":"2026-03-23T18:00:02.999808","MEAN_MOTION":15.99089223,"ECCENTRICITY":0.0001395,"INCLINATION":97.2771,"RA_OF_ASC_NODE":317.6098,"ARG_OF_PERICENTER":78.0835,"MEAN_ANOMALY":2.989,"EPHEMERIS_TYPE":0,"CLASSIFICATION_TYPE":"U","NORAD_CAT_ID":68225,"ELEMENT_SET_NO":999,"REV_AT_EPOCH":225,"BSTAR":-0.0044054649,"MEAN_MOTION_DOT":-0.02097811,"MEAN_MOTION_DDOT":0.0012911383},{"OBJECT_NAME":"STARLINK-37038","OBJECT_ID":"2026-053V","EPOCH":"2026-03-23T18:00:02.999808","MEAN_MOTION":15.99375706,"ECCENTRICITY":0.00014356,"INCLINATION":97.2773,"RA_OF_ASC_NODE":317.6118,"ARG_OF_PERICENTER":77.2974,"MEAN_ANOMALY":7.7113,"EPHEMERIS_TYPE":0,"CLASSIFICATION_TYPE":"U","NORAD_CAT_ID":68226,"ELEMENT_SET_NO":999,"REV_AT_EPOCH":225,"BSTAR":-0.0043512046,"MEAN_MOTION_DOT":-0.02105406,"MEAN_MOTION_DDOT":0.0013045785},{"OBJECT_NAME":"STARLINK-37083","OBJECT_ID":"2026-053W","EPOCH":"2026-03-17T22:00:03.000096","MEAN_MOTION":16.09297729,"ECCENTRICITY":0.0011267,"INCLINATION":97.2838,"RA_OF_ASC_NODE":311.1986,"ARG_OF_PERICENTER":270.0799,"MEAN_ANOMALY":280.1631,"EPHEMERIS_TYPE":0,"CLASSIFICATION_TYPE":"U","NORAD_CAT_ID":68227,"ELEMENT_SET_NO":999,"REV_AT_EPOCH":131,"BSTAR":0.00050505,"MEAN_MOTION_DOT":0.00451132,"MEAN_MOTION_DDOT":0.00010337},{"OBJECT_NAME":"STARLINK-37050","OBJECT_ID":"2026-053X","EPOCH":"2026-03-23T18:00:02.999808","MEAN_MOTION":15.995174,"ECCENTRICITY":0.00015013,"INCLINATION":97.2775,"RA_OF_ASC_NODE":317.6131,"ARG_OF_PERICENTER":78.1536,"MEAN_ANOMALY":8.9822,"EPHEMERIS_TYPE":0,"CLASSIFICATION_TYPE":"U","NORAD_CAT_ID":68228,"ELEMENT_SET_NO":999,"REV_AT_EPOCH":225,"BSTAR":-0.004314302,"MEAN_MOTION_DOT":-0.02104251,"MEAN_MOTION_DDOT":0.0013054187},{"OBJECT_NAME":"STARLINK-37081","OBJECT_ID":"2026-053Y","EPOCH":"2026-03-23T18:00:02.999808","MEAN_MOTION":15.99930003,"ECCENTRICITY":0.00015369,"INCLINATION":97.277,"RA_OF_ASC_NODE":317.6154,"ARG_OF_PERICENTER":75.6812,"MEAN_ANOMALY":17.2418,"EPHEMERIS_TYPE":0,"CLASSIFICATION_TYPE":"U","NORAD_CAT_ID":68229,"ELEMENT_SET_NO":999,"REV_AT_EPOCH":227,"BSTAR":-0.004210507,"MEAN_MOTION_DOT":-0.0210194,"MEAN_MOTION_DDOT":0.0013091562},{"OBJECT_NAME":"STARLINK-37100","OBJECT_ID":"2026-053Z","EPOCH":"2026-03-23T18:00:02.999808","MEAN_MOTION":15.9962999,"ECCENTRICITY":0.00015553,"INCLINATION":97.2771,"RA_OF_ASC_NODE":317.6138,"ARG_OF_PERICENTER":68.602,"MEAN_ANOMALY":20.2838,"EPHEMERIS_TYPE":0,"CLASSIFICATION_TYPE":"U","NORAD_CAT_ID":68230,"ELEMENT_SET_NO":999,"REV_AT_EPOCH":227,"BSTAR":-0.0041887896,"MEAN_MOTION_DOT":-0.02056477,"MEAN_MOTION_DDOT":0.0012508568},{"OBJECT_NAME":"STARLINK-37104","OBJECT_ID":"2026-053AA","EPOCH":"2026-03-23T18:00:02.999808","MEAN_MOTION":15.99771773,"ECCENTRICITY":0.00015416,"INCLINATION":97.277,"RA_OF_ASC_NODE":317.6148,"ARG_OF_PERICENTER":91.7966,"MEAN_ANOMALY":359.1302,"EPHEMERIS_TYPE":0,"CLASSIFICATION_TYPE":"U","NORAD_CAT_ID":68231,"ELEMENT_SET_NO":999,"REV_AT_EPOCH":227,"BSTAR":-0.0041490464,"MEAN_MOTION_DOT":-0.02053312,"MEAN_MOTION_DDOT":0.001249281},{"OBJECT_NAME":"TEN-KOH 2","OBJECT_ID":"2025-241B","EPOCH":"2026-03-24T23:28:32.275776","MEAN_MOTION":15.22669035,"ECCENTRICITY":0.00044337,"INCLINATION":51.637,"RA_OF_ASC_NODE":0.1717,"ARG_OF_PERICENTER":209.7861,"MEAN_ANOMALY":150.2864,"EPHEMERIS_TYPE":0,"CLASSIFICATION_TYPE":"U","NORAD_CAT_ID":68261,"ELEMENT_SET_NO":999,"REV_AT_EPOCH":207,"BSTAR":0.00036405183,"MEAN_MOTION_DOT":8.272e-5,"MEAN_MOTION_DDOT":0},{"OBJECT_NAME":"PROGRESS-MS 33","OBJECT_ID":"2026-058A","EPOCH":"2026-03-24T19:24:53.959968","MEAN_MOTION":15.48525391,"ECCENTRICITY":0.00062584,"INCLINATION":51.6344,"RA_OF_ASC_NODE":357.6177,"ARG_OF_PERICENTER":228.0573,"MEAN_ANOMALY":131.9883,"EPHEMERIS_TYPE":0,"CLASSIFICATION_TYPE":"U","NORAD_CAT_ID":68319,"ELEMENT_SET_NO":999,"REV_AT_EPOCH":11,"BSTAR":0.00018679893,"MEAN_MOTION_DOT":9.69e-5,"MEAN_MOTION_DDOT":0},{"OBJECT_NAME":"CENTISPACE-1 OBJECT A","OBJECT_ID":"2026-060A","EPOCH":"2026-03-24T22:35:14.254080","MEAN_MOTION":14.7490116,"ECCENTRICITY":0.0012891,"INCLINATION":54.9833,"RA_OF_ASC_NODE":19.4052,"ARG_OF_PERICENTER":297.8205,"MEAN_ANOMALY":62.1488,"EPHEMERIS_TYPE":0,"CLASSIFICATION_TYPE":"U","NORAD_CAT_ID":68350,"ELEMENT_SET_NO":999,"REV_AT_EPOCH":34,"BSTAR":3.1874435e-5,"MEAN_MOTION_DOT":6.0e-8,"MEAN_MOTION_DDOT":0},{"OBJECT_NAME":"CENTISPACE-1 OBJECT B","OBJECT_ID":"2026-060B","EPOCH":"2026-03-24T22:35:11.391648","MEAN_MOTION":14.74922246,"ECCENTRICITY":0.00129051,"INCLINATION":54.9838,"RA_OF_ASC_NODE":19.404,"ARG_OF_PERICENTER":297.8658,"MEAN_ANOMALY":62.1034,"EPHEMERIS_TYPE":0,"CLASSIFICATION_TYPE":"U","NORAD_CAT_ID":68351,"ELEMENT_SET_NO":999,"REV_AT_EPOCH":34,"BSTAR":3.1870755e-5,"MEAN_MOTION_DOT":6.0e-8,"MEAN_MOTION_DDOT":0},{"OBJECT_NAME":"CENTISPACE-1 OBJECT C","OBJECT_ID":"2026-060C","EPOCH":"2026-03-24T22:34:47.902080","MEAN_MOTION":14.7510318,"ECCENTRICITY":0.00122347,"INCLINATION":54.9832,"RA_OF_ASC_NODE":19.404,"ARG_OF_PERICENTER":303.4374,"MEAN_ANOMALY":56.5455,"EPHEMERIS_TYPE":0,"CLASSIFICATION_TYPE":"U","NORAD_CAT_ID":68352,"ELEMENT_SET_NO":999,"REV_AT_EPOCH":34,"BSTAR":3.2234542e-5,"MEAN_MOTION_DOT":1.0e-7,"MEAN_MOTION_DDOT":0},{"OBJECT_NAME":"CENTISPACE-1 OBJECT D","OBJECT_ID":"2026-060D","EPOCH":"2026-03-24T22:34:41.727936","MEAN_MOTION":14.75149528,"ECCENTRICITY":0.00124442,"INCLINATION":54.9854,"RA_OF_ASC_NODE":19.4026,"ARG_OF_PERICENTER":304.4138,"MEAN_ANOMALY":55.5684,"EPHEMERIS_TYPE":0,"CLASSIFICATION_TYPE":"U","NORAD_CAT_ID":68353,"ELEMENT_SET_NO":999,"REV_AT_EPOCH":34,"BSTAR":3.2362832e-5,"MEAN_MOTION_DOT":1.0e-7,"MEAN_MOTION_DDOT":0}]
